STARLINK-35270          
1 65882U 25224A   25309.66670139 -.00035430  00000+0 -63180-3 0  9998
2 65882  53.1601 228.7432 0001089  88.9375  41.6436 15.49311305  5891
STARLINK-35367          
1 65883U 25224B   25309.64298175  .00156434  00000+0  27588-2 0  9990
2 65883  53.1606 228.8538 0001200 110.4777 249.6361 15.49370553  5816
STARLINK-35384          
1 65884U 25224C   25309.96449267  .00070593  00000+0  12649-2 0  9999
2 65884  53.1596 227.3030 0001231  39.1138 320.9960 15.49331504  5864
STARLINK-35415          
1 65885U 25224D   25309.96380565  .00092053  00000+0  16424-2 0  9995
2 65885  53.1601 227.3007 0001267  45.5898 314.5214 15.49332030  5810
STARLINK-35413          
1 65886U 25224E   25309.96311845  .00094554  00000+0  16860-2 0  9993
2 65886  53.1602 227.2948 0001755 108.7007 251.4192 15.49336407  5817
STARLINK-35332          
1 65887U 25224F   25309.51122292  .00098927  00000+0  17613-2 0  9996
2 65887  53.1609 229.4509 0002247  84.5432 275.5834 15.49356418  5827
STARLINK-35362          
1 65888U 25224G   25309.96586435  .00297462  00000+0  51315-2 0  9991
2 65888  53.1611 227.3148 0001224 123.1344 236.9782 15.49441176  5866
STARLINK-35193          
1 65889U 25224H   25309.49074531  .00077752  00000+0  13901-2 0  9996
2 65889  53.1594 229.3124 0001498  93.0984 267.0197 15.49351186  5823
STARLINK-34542          
1 65890U 25224J   25309.51328063  .00079869  00000+0  14274-2 0  9998
2 65890  53.1604 229.4648 0001372  89.7892 270.3274 15.49350496  5848
STARLINK-34791          
1 65891U 25224K   25309.49143225  .00072992  00000+0  13065-2 0  9998
2 65891  53.1609 229.3176 0001382  88.7397 271.3770 15.49346658  5846
STARLINK-34853          
1 65892U 25224L   25309.96414735  .00087405  00000+0  15610-2 0  9991
2 65892  53.1592 227.3004 0001193 100.6679 259.4464 15.49328252  5840
STARLINK-34921          
1 65893U 25224M   25309.74843403  .00079694  00000+0  14224-2 0  9997
2 65893  53.1608 228.0780 0003305  88.9349 271.2039 15.49384873  5882
