CCSDS_OMM_VERS = 2.0
CREATION_DATE  = 
ORIGINATOR     = 

OBJECT_NAME    = STARLINK-35270
OBJECT_ID      = 2025-224A
CENTER_NAME    = EARTH
REF_FRAME      = TEME
TIME_SYSTEM    = UTC
MEAN_ELEMENT_THEORY = SGP/SGP4

EPOCH          = 2025-11-05T16:00:03.000096
MEAN_MOTION    = 15.49311305
ECCENTRICITY   = .00010894
INCLINATION    = 53.1601
RA_OF_ASC_NODE = 228.7432
ARG_OF_PERICENTER = 88.9375
MEAN_ANOMALY   = 41.6436

EPHEMERIS_TYPE = 0
CLASSIFICATION_TYPE = U
NORAD_CAT_ID   = 65882
ELEMENT_SET_NO = 999
REV_AT_EPOCH   = 589
BSTAR          = -.6317965E-3
MEAN_MOTION_DOT = -.3543E-3
MEAN_MOTION_DDOT = 0

CCSDS_OMM_VERS = 2.0
CREATION_DATE  = 
ORIGINATOR     = 

OBJECT_NAME    = STARLINK-35367
OBJECT_ID      = 2025-224B
CENTER_NAME    = EARTH
REF_FRAME      = TEME
TIME_SYSTEM    = UTC
MEAN_ELEMENT_THEORY = SGP/SGP4

EPOCH          = 2025-11-05T15:25:53.623200
MEAN_MOTION    = 15.49370553
ECCENTRICITY   = .00012001
INCLINATION    = 53.1606
RA_OF_ASC_NODE = 228.8538
ARG_OF_PERICENTER = 110.4777
MEAN_ANOMALY   = 249.6361

EPHEMERIS_TYPE = 0
CLASSIFICATION_TYPE = U
NORAD_CAT_ID   = 65883
ELEMENT_SET_NO = 999
REV_AT_EPOCH   = 581
BSTAR          = .27588029E-2
MEAN_MOTION_DOT = .156434E-2
MEAN_MOTION_DDOT = 0

CCSDS_OMM_VERS = 2.0
CREATION_DATE  = 
ORIGINATOR     = 

OBJECT_NAME    = STARLINK-35384
OBJECT_ID      = 2025-224C
CENTER_NAME    = EARTH
REF_FRAME      = TEME
TIME_SYSTEM    = UTC
MEAN_ELEMENT_THEORY = SGP/SGP4

EPOCH          = 2025-11-05T23:08:52.166688
MEAN_MOTION    = 15.49331504
ECCENTRICITY   = .00012317
INCLINATION    = 53.1596
RA_OF_ASC_NODE = 227.3030
ARG_OF_PERICENTER = 39.1138
MEAN_ANOMALY   = 320.9960

EPHEMERIS_TYPE = 0
CLASSIFICATION_TYPE = U
NORAD_CAT_ID   = 65884
ELEMENT_SET_NO = 999
REV_AT_EPOCH   = 586
BSTAR          = .12648641E-2
MEAN_MOTION_DOT = .70593E-3
MEAN_MOTION_DDOT = 0

CCSDS_OMM_VERS = 2.0
CREATION_DATE  = 
ORIGINATOR     = 

OBJECT_NAME    = STARLINK-35415
OBJECT_ID      = 2025-224D
CENTER_NAME    = EARTH
REF_FRAME      = TEME
TIME_SYSTEM    = UTC
MEAN_ELEMENT_THEORY = SGP/SGP4

EPOCH          = 2025-11-05T23:07:52.808160
MEAN_MOTION    = 15.49332030
ECCENTRICITY   = .00012672
INCLINATION    = 53.1601
RA_OF_ASC_NODE = 227.3007
ARG_OF_PERICENTER = 45.5898
MEAN_ANOMALY   = 314.5214

EPHEMERIS_TYPE = 0
CLASSIFICATION_TYPE = U
NORAD_CAT_ID   = 65885
ELEMENT_SET_NO = 999
REV_AT_EPOCH   = 581
BSTAR          = .16423961E-2
MEAN_MOTION_DOT = .92053E-3
MEAN_MOTION_DDOT = 0

CCSDS_OMM_VERS = 2.0
CREATION_DATE  = 
ORIGINATOR     = 

OBJECT_NAME    = STARLINK-35413
OBJECT_ID      = 2025-224E
CENTER_NAME    = EARTH
REF_FRAME      = TEME
TIME_SYSTEM    = UTC
MEAN_ELEMENT_THEORY = SGP/SGP4

EPOCH          = 2025-11-05T23:06:53.434080
MEAN_MOTION    = 15.49336407
ECCENTRICITY   = .0001755
INCLINATION    = 53.1602
RA_OF_ASC_NODE = 227.2948
ARG_OF_PERICENTER = 108.7007
MEAN_ANOMALY   = 251.4192

EPHEMERIS_TYPE = 0
CLASSIFICATION_TYPE = U
NORAD_CAT_ID   = 65886
ELEMENT_SET_NO = 999
REV_AT_EPOCH   = 581
BSTAR          = .16859834E-2
MEAN_MOTION_DOT = .94554E-3
MEAN_MOTION_DDOT = 0

CCSDS_OMM_VERS = 2.0
CREATION_DATE  = 
ORIGINATOR     = 

OBJECT_NAME    = STARLINK-35332
OBJECT_ID      = 2025-224F
CENTER_NAME    = EARTH
REF_FRAME      = TEME
TIME_SYSTEM    = UTC
MEAN_ELEMENT_THEORY = SGP/SGP4

EPOCH          = 2025-11-05T12:16:09.660288
MEAN_MOTION    = 15.49356418
ECCENTRICITY   = .00022472
INCLINATION    = 53.1609
RA_OF_ASC_NODE = 229.4509
ARG_OF_PERICENTER = 84.5432
MEAN_ANOMALY   = 275.5834

EPHEMERIS_TYPE = 0
CLASSIFICATION_TYPE = U
NORAD_CAT_ID   = 65887
ELEMENT_SET_NO = 999
REV_AT_EPOCH   = 582
BSTAR          = .17613225E-2
MEAN_MOTION_DOT = .98927E-3
MEAN_MOTION_DDOT = 0

CCSDS_OMM_VERS = 2.0
CREATION_DATE  = 
ORIGINATOR     = 

OBJECT_NAME    = STARLINK-35362
OBJECT_ID      = 2025-224G
CENTER_NAME    = EARTH
REF_FRAME      = TEME
TIME_SYSTEM    = UTC
MEAN_ELEMENT_THEORY = SGP/SGP4

EPOCH          = 2025-11-05T23:10:50.679840
MEAN_MOTION    = 15.49441176
ECCENTRICITY   = .00012241
INCLINATION    = 53.1611
RA_OF_ASC_NODE = 227.3148
ARG_OF_PERICENTER = 123.1344
MEAN_ANOMALY   = 236.9782

EPHEMERIS_TYPE = 0
CLASSIFICATION_TYPE = U
NORAD_CAT_ID   = 65888
ELEMENT_SET_NO = 999
REV_AT_EPOCH   = 586
BSTAR          = .51314846E-2
MEAN_MOTION_DOT = .297462E-2
MEAN_MOTION_DDOT = 0

CCSDS_OMM_VERS = 2.0
CREATION_DATE  = 
ORIGINATOR     = 

OBJECT_NAME    = STARLINK-35193
OBJECT_ID      = 2025-224H
CENTER_NAME    = EARTH
REF_FRAME      = TEME
TIME_SYSTEM    = UTC
MEAN_ELEMENT_THEORY = SGP/SGP4

EPOCH          = 2025-11-05T11:46:40.394784
MEAN_MOTION    = 15.49351186
ECCENTRICITY   = .00014981
INCLINATION    = 53.1594
RA_OF_ASC_NODE = 229.3124
ARG_OF_PERICENTER = 93.0984
MEAN_ANOMALY   = 267.0197

EPHEMERIS_TYPE = 0
CLASSIFICATION_TYPE = U
NORAD_CAT_ID   = 65889
ELEMENT_SET_NO = 999
REV_AT_EPOCH   = 582
BSTAR          = .13900871E-2
MEAN_MOTION_DOT = .77752E-3
MEAN_MOTION_DDOT = 0

CCSDS_OMM_VERS = 2.0
CREATION_DATE  = 
ORIGINATOR     = 

OBJECT_NAME    = STARLINK-34542
OBJECT_ID      = 2025-224J
CENTER_NAME    = EARTH
REF_FRAME      = TEME
TIME_SYSTEM    = UTC
MEAN_ELEMENT_THEORY = SGP/SGP4

EPOCH          = 2025-11-05T12:19:07.446432
MEAN_MOTION    = 15.49350496
ECCENTRICITY   = .00013723
INCLINATION    = 53.1604
RA_OF_ASC_NODE = 229.4648
ARG_OF_PERICENTER = 89.7892
MEAN_ANOMALY   = 270.3274

EPHEMERIS_TYPE = 0
CLASSIFICATION_TYPE = U
NORAD_CAT_ID   = 65890
ELEMENT_SET_NO = 999
REV_AT_EPOCH   = 584
BSTAR          = .14273633E-2
MEAN_MOTION_DOT = .79869E-3
MEAN_MOTION_DDOT = 0

CCSDS_OMM_VERS = 2.0
CREATION_DATE  = 
ORIGINATOR     = 

OBJECT_NAME    = STARLINK-34791
OBJECT_ID      = 2025-224K
CENTER_NAME    = EARTH
REF_FRAME      = TEME
TIME_SYSTEM    = UTC
MEAN_ELEMENT_THEORY = SGP/SGP4

EPOCH          = 2025-11-05T11:47:39.746400
MEAN_MOTION    = 15.49346658
ECCENTRICITY   = .00013827
INCLINATION    = 53.1609
RA_OF_ASC_NODE = 229.3176
ARG_OF_PERICENTER = 88.7397
MEAN_ANOMALY   = 271.3770

EPHEMERIS_TYPE = 0
CLASSIFICATION_TYPE = U
NORAD_CAT_ID   = 65891
ELEMENT_SET_NO = 999
REV_AT_EPOCH   = 584
BSTAR          = .13064912E-2
MEAN_MOTION_DOT = .72992E-3
MEAN_MOTION_DDOT = 0

CCSDS_OMM_VERS = 2.0
CREATION_DATE  = 
ORIGINATOR     = 

OBJECT_NAME    = STARLINK-34853
OBJECT_ID      = 2025-224L
CENTER_NAME    = EARTH
REF_FRAME      = TEME
TIME_SYSTEM    = UTC
MEAN_ELEMENT_THEORY = SGP/SGP4

EPOCH          = 2025-11-05T23:08:22.331040
MEAN_MOTION    = 15.49328252
ECCENTRICITY   = .00011931
INCLINATION    = 53.1592
RA_OF_ASC_NODE = 227.3004
ARG_OF_PERICENTER = 100.6679
MEAN_ANOMALY   = 259.4464

EPHEMERIS_TYPE = 0
CLASSIFICATION_TYPE = U
NORAD_CAT_ID   = 65892
ELEMENT_SET_NO = 999
REV_AT_EPOCH   = 584
BSTAR          = .15610192E-2
MEAN_MOTION_DOT = .87405E-3
MEAN_MOTION_DDOT = 0

CCSDS_OMM_VERS = 2.0
CREATION_DATE  = 
ORIGINATOR     = 

OBJECT_NAME    = STARLINK-34921
OBJECT_ID      = 2025-224M
CENTER_NAME    = EARTH
REF_FRAME      = TEME
TIME_SYSTEM    = UTC
MEAN_ELEMENT_THEORY = SGP/SGP4

EPOCH          = 2025-11-05T17:57:44.700192
MEAN_MOTION    = 15.49384873
ECCENTRICITY   = .00033058
INCLINATION    = 53.1608
RA_OF_ASC_NODE = 228.0780
ARG_OF_PERICENTER = 88.9349
MEAN_ANOMALY   = 271.2039

EPHEMERIS_TYPE = 0
CLASSIFICATION_TYPE = U
NORAD_CAT_ID   = 65893
ELEMENT_SET_NO = 999
REV_AT_EPOCH   = 588
BSTAR          = .14224056E-2
MEAN_MOTION_DOT = .79694E-3
MEAN_MOTION_DDOT = 0

